[{"OBJECT_NAME":"ONEWEB-0059","OBJECT_ID":"2020-008AH","EPOCH":"2026-03-09T22:37:08.623488","MEAN_MOTION":13.10371205,"ECCENTRICITY":0.00016655,"INCLINATION":87.8803,"RA_OF_ASC_NODE":56.0352,"ARG_OF_PERICENTER":102.322,"MEAN_ANOMALY":257.8094,"EPHEMERIS_TYPE":0,"CLASSIFICATION_TYPE":"U","NORAD_CAT_ID":45162,"ELEMENT_SET_NO":999,"REV_AT_EPOCH":29532,"BSTAR":-0.0014862615,"MEAN_MOTION_DOT":-5.06e-6,"MEAN_MOTION_DDOT":0},{"OBJECT_NAME":"PEGASUS DEB","OBJECT_ID":"1994-029KL","EPOCH":"2026-03-09T21:20:10.241088","MEAN_MOTION":13.96859935,"ECCENTRICITY":0.05133126,"INCLINATION":81.4593,"RA_OF_ASC_NODE":238.2872,"ARG_OF_PERICENTER":338.9836,"MEAN_ANOMALY":19.0885,"EPHEMERIS_TYPE":0,"CLASSIFICATION_TYPE":"U","NORAD_CAT_ID":24213,"ELEMENT_SET_NO":999,"REV_AT_EPOCH":14823,"BSTAR":0.00070532339,"MEAN_MOTION_DOT":3.072e-5,"MEAN_MOTION_DDOT":0}]
